NORAD_CAT_ID,OBJECT_NAME,OBJECT_TYPE,EPOCH,MEAN_MOTION,ECCENTRICITY,INCLINATION,RA_OF_ASC_NODE,ARG_OF_PERICENTER,MEAN_ANOMALY,BSTAR,MEAN_MOTION_DOT,MEAN_MOTION_DDOT,TLE_LINE0,TLE_LINE1,TLE_LINE2,SEMIMAJOR_AXIS,PERIOD,APOGEE,PERIGEE,DECAYED
49441.0,STARLINK-3128,PAYLOAD,2024-04-10 05:37:22,15.08835512,0.0001317,53.2158,104.6061,94.3874,265.7269,1.7314e-05,-1.2e-07,0.0,0 STARLINK-3128,1 49441U 21104AK  24101.23429176 -.00000012  00000-0  17314-4 0  9996,2 49441  53.2158 104.6061 0001317  94.3874 265.7269 15.08835512134556,6917.894,95.438,540.67,538.848,0.0
49441.0,STARLINK-3128,PAYLOAD,2024-04-10 07:12:45,15.08836127,0.0001348,53.2161,104.3107,91.8064,268.3083,9.2325e-06,-1.41e-06,0.0,0 STARLINK-3128,1 49441U 21104AK  24101.30053215 -.00000141  00000-0  92325-5 0  9990,2 49441  53.2161 104.3107 0001348  91.8064 268.3083 15.08836127133482,6917.892,95.438,540.69,538.825,0.0
49441.0,STARLINK-3128,PAYLOAD,2024-04-11 08:38:56,15.08839135,0.0001366,53.2166,99.5543,96.2293,263.8854,1.2197e-06,-2.69e-06,0.0,0 STARLINK-3128,1 49441U 21104AK  24102.36037312 -.00000269  00000-0  12197-5 0  9997,2 49441  53.2166  99.5543 0001366  96.2293 263.8854 15.08839135134725,6917.883,95.438,540.693,538.803,0.0
49441.0,STARLINK-3128,PAYLOAD,2024-04-11 16:35:51,15.08841299,0.0001337,53.2169,98.067,94.0493,266.0652,-4.1542e-05,-9.49e-06,0.0,0 STARLINK-3128,1 49441U 21104AK  24102.69157343 -.00000949  00000-0 -41542-4 0  9991,2 49441  53.2169  98.0670 0001337  94.0493 266.0652 15.08841299133699,6917.876,95.437,540.666,538.816,0.0
49441.0,STARLINK-3128,PAYLOAD,2024-04-12 08:29:43,15.08837603,0.0001422,53.2172,95.0941,94.2016,265.9138,0.0001032,1.355e-05,0.0,0 STARLINK-3128,1 49441U 21104AK  24103.35397484  .00001355  00000-0  10320-3 0  9996,2 49441  53.2172  95.0941 0001422  94.2016 265.9138 15.08837603133791,6917.888,95.438,540.736,538.769,0.0
49441.0,STARLINK-3128,PAYLOAD,2024-04-13 05:09:44,15.08841094,0.000147,53.2169,91.2283,97.9824,262.1335,8.3851e-05,1.047e-05,0.0,0 STARLINK-3128,1 49441U 21104AK  24104.21509515  .00001047  00000-0  83851-4 0  9990,2 49441  53.2169  91.2283 0001470  97.9824 262.1335 15.08841094135007,6917.877,95.437,540.759,538.725,0.0
49441.0,STARLINK-3128,PAYLOAD,2024-04-13 08:20:30,15.08843611,0.0001456,53.217,90.6334,97.1385,262.9773,0.00010155,1.329e-05,0.0,0 STARLINK-3128,1 49441U 21104AK  24104.34757309  .00001329  00000-0  10155-3 0  9999,2 49441  53.2170  90.6334 0001456  97.1385 262.9773 15.08843611133949,6917.869,95.437,540.742,538.727,0.0
49441.0,STARLINK-3128,PAYLOAD,2024-04-14 08:11:17,15.08844294,0.0001774,53.2183,86.1648,76.4113,283.7077,7.4858e-05,9.04e-06,0.0,0 STARLINK-3128,1 49441U 21104AK  24105.34117476  .00000904  00000-0  74858-4 0  9994,2 49441  53.2183  86.1648 0001774  76.4113 283.7077 15.08844294135176,6917.867,95.437,540.959,538.505,0.0
49441.0,STARLINK-3128,PAYLOAD,2024-04-15 08:02:04,15.08843748,0.0001729,53.2185,81.7063,108.4988,251.6192,3.7624e-07,-2.82e-06,0.0,0 STARLINK-3128,1 49441U 21104AK  24106.33477546 -.00000282  00000-0  37624-6 0  9993,2 49441  53.2185  81.7063 0001729 108.4988 251.6192 15.08843748134248,6917.869,95.437,540.93,538.538,0.0
49441.0,STARLINK-3128,PAYLOAD,2024-04-16 04:42:05,15.08850018,0.000151,53.2182,77.8429,91.3485,268.768,2.5267e-05,1.14e-06,0.0,0 STARLINK-3128,1 49441U 21104AK  24107.19589316  .00000114  00000-0  25267-4 0  9998,2 49441  53.2182  77.8429 0001510  91.3485 268.7680 15.08850018135450,6917.85,95.437,540.759,538.67,0.0
49441.0,STARLINK-3128,PAYLOAD,2024-04-16 07:52:51,15.08847382,0.0001697,53.2184,77.2485,111.3429,248.7744,0.00012174,1.65e-05,0.0,0 STARLINK-3128,1 49441U 21104AK  24107.32837083  .00001650  00000-0  12174-3 0  9998,2 49441  53.2184  77.2485 0001697 111.3429 248.7744 15.08847382134396,6917.858,95.437,540.897,538.549,0.0
49441.0,STARLINK-3128,PAYLOAD,2024-04-17 07:43:37,15.08845651,0.0001165,53.2168,72.7893,89.7229,270.3897,-1.9049e-05,-5.91e-06,0.0,0 STARLINK-3128,1 49441U 21104AK  24108.32196111 -.00000591  00000-0 -19049-4 0  9993,2 49441  53.2168  72.7893 0001165  89.7229 270.3897 15.08845651135621,6917.863,95.437,540.534,538.922,0.0
49441.0,STARLINK-3128,PAYLOAD,2024-04-18 01:12:53,15.08821218,0.0001934,53.2165,69.5152,117.2042,242.9148,-0.00030313,-5.107e-05,0.0,0 STARLINK-3128,1 49441U 21104AK  24109.05061997 -.00005107  00000-0 -30313-3 0  9991,2 49441  53.2165  69.5152 0001934 117.2042 242.9148 15.08821218135733,6917.938,95.439,541.141,538.465,0.0
49441.0,STARLINK-3128,PAYLOAD,2024-04-18 21:52:54,15.08823042,0.0001532,53.216,65.6452,94.5897,265.527,0.00010105,1.32e-05,0.0,0 STARLINK-3128,1 49441U 21104AK  24109.91174508  .00001320  00000-0  10105-3 0  9997,2 49441  53.2160  65.6452 0001532  94.5897 265.5270 15.08823042134785,6917.932,95.439,540.857,538.737,0.0
49441.0,STARLINK-3128,PAYLOAD,2024-04-19 02:39:04,15.08828772,0.0001598,53.2174,64.7619,101.4072,258.71,0.00020614,2.993e-05,0.0,0 STARLINK-3128,1 49441U 21104AK  24110.11046538  .00002993  00000-0  20614-3 0  9995,2 49441  53.2174  64.7619 0001598 101.4072 258.7100 15.08828772135894,6917.915,95.438,540.885,538.674,0.0
49441.0,STARLINK-3128,PAYLOAD,2024-04-20 04:05:13,15.0887142,0.0001643,53.2168,60.003,86.6483,273.4697,0.0009467,0.00014824,0.0,0 STARLINK-3128,1 49441U 21104AK  24111.17029907  .00014824  00000-0  94670-3 0  9992,2 49441  53.2168  60.0030 0001643  86.6483 273.4697 15.08871420136056,6917.784,95.436,540.786,538.513,0.0
49441.0,STARLINK-3128,PAYLOAD,2024-04-20 19:59:04,15.08854465,0.0001772,53.2172,57.0313,89.1296,270.99,0.0001467,2.048e-05,0.0,0 STARLINK-3128,1 49441U 21104AK  24111.83269540  .00002048  00000-0  14670-3 0  9991,2 49441  53.2172  57.0313 0001772  89.1296 270.9900 15.08854465136154,6917.836,95.437,540.927,538.475,0.0
49441.0,STARLINK-3128,PAYLOAD,2024-04-21 05:31:22,15.08870115,0.0001028,53.217,55.2426,101.8582,258.2526,0.00056189,8.673e-05,0.0,0 STARLINK-3128,1 49441U 21104AK  24112.23012717  .00008673  00000-0  56189-3 0  9999,2 49441  53.2170  55.2426 0001028 101.8582 258.2526 15.08870115135131,6917.788,95.436,540.364,538.942,0.0
49441.0,STARLINK-3128,PAYLOAD,2024-04-22 02:11:24,15.08828378,0.0001408,53.2176,51.3808,102.1676,257.9474,5.1024e-05,5.24e-06,0.0,0 STARLINK-3128,1 49441U 21104AK  24113.09126069  .00000524  00000-0  51024-4 0  9991,2 49441  53.2176  51.3808 0001408 102.1676 257.9474 15.08828378136344,6917.916,95.438,540.755,538.807,0.0
49441.0,STARLINK-3128,PAYLOAD,2024-04-22 22:51:26,15.08832261,0.0001221,53.2169,47.5166,125.5435,234.5671,0.00020054,2.905e-05,0.0,0 STARLINK-3128,1 49441U 21104AK  24113.95238811  .00002905  00000-0  20054-3 0  9998,2 49441  53.2169  47.5166 0001221 125.5435 234.5671 15.08832261135395,6917.904,95.438,540.614,538.924,0.0
49441.0,STARLINK-3128,PAYLOAD,2024-04-23 05:12:58,15.08837806,0.0001216,53.2181,46.3226,133.9612,226.148,0.00090439,0.00014134,0.0,0 STARLINK-3128,1 49441U 21104AK  24114.21734722  .00014134  00000-0  90439-3 0  9991,2 49441  53.2181  46.3226 0001216 133.9612 226.1480 15.08837806136517,6917.887,95.438,540.593,538.911,0.0
49441.0,STARLINK-3128,PAYLOAD,2024-04-23 22:42:13,15.08839422,0.0001004,53.2188,43.0433,120.0408,240.0684,0.0004341,6.627e-05,0.0,0 STARLINK-3128,1 49441U 21104AK  24114.94599094  .00006627  00000-0  43410-3 0  9997,2 49441  53.2188  43.0433 0001004 120.0408 240.0684 15.08839422135542,6917.882,95.438,540.442,539.053,0.0
49441.0,STARLINK-3128,PAYLOAD,2024-04-24 05:03:45,15.08851641,0.0001305,53.2188,41.8574,117.1708,242.9417,0.00074733,0.0001163,0.0,0 STARLINK-3128,1 49441U 21104AK  24115.21094892  .00011630  00000-0  74733-3 0  9996,2 49441  53.2188  41.8574 0001305 117.1708 242.9417 15.08851641136664,6917.845,95.437,540.613,538.807,0.0
49441.0,STARLINK-3128,PAYLOAD,2024-04-24 22:33:00,15.08848172,0.0001899,53.2181,38.5842,139.8738,220.2395,0.00014513,2.023e-05,0.0,0 STARLINK-3128,1 49441U 21104AK  24115.93958841  .00002023  00000-0  14513-3 0  9994,2 49441  53.2181  38.5842 0001899 139.8738 220.2395 15.08848172135691,6917.855,95.437,541.034,538.407,0.0
49441.0,STARLINK-3128,PAYLOAD,2024-04-25 04:54:32,15.08849396,0.0001043,53.2179,37.4005,114.1757,245.9344,0.00056439,8.708e-05,0.0,0 STARLINK-3128,1 49441U 21104AK  24116.20454845  .00008708  00000-0  56439-3 0  9999,2 49441  53.2179  37.4005 0001043 114.1757 245.9344 15.08849396136817,6917.852,95.437,540.438,538.995,0.0
49441.0,STARLINK-3128,PAYLOAD,2024-04-25 22:23:47,15.08837961,0.0001157,53.2185,34.1235,129.5388,230.5706,0.00035814,5.416e-05,0.0,0 STARLINK-3128,1 49441U 21104AK  24116.93319093  .00005416  00000-0  35814-3 0  9991,2 49441  53.2185  34.1235 0001157 129.5388 230.5706 15.08837961135848,6917.887,95.438,540.552,538.951,0.0
49441.0,STARLINK-3128,PAYLOAD,2024-04-26 01:34:33,15.08851853,7.71e-05,53.2174,33.5364,90.148,269.9601,0.00076056,0.00011841,0.0,0 STARLINK-3128,1 49441U 21104AK  24117.06566915  .00011841  00000-0  76056-3 0  9995,2 49441  53.2174  33.5364 0000771  90.1480 269.9601 15.08851853136947,6917.844,95.437,540.243,539.176,0.0
49441.0,STARLINK-3128,PAYLOAD,2024-04-26 11:06:52,15.08849487,7.91e-05,53.2175,31.7543,92.651,267.4573,0.00069205,0.00010746,0.0,0 STARLINK-3128,1 49441U 21104AK  24117.46310991  .00010746  00000-0  69205-3 0  9991,2 49441  53.2175  31.7543 0000791  92.6510 267.4573 15.08849487137009,6917.851,95.437,540.264,539.169,0.0
49441.0,STARLINK-3128,PAYLOAD,2024-04-26 22:14:34,15.08837841,0.0001091,53.2171,29.6712,106.253,253.8582,0.00017425,2.486e-05,0.0,0 STARLINK-3128,1 49441U 21104AK  24117.92679199  .00002486  00000-0  17425-3 0  9999,2 49441  53.2171  29.6712 0001091 106.2530 253.8582 15.08837841135993,6917.887,95.438,540.507,538.997,0.0
49441.0,STARLINK-3128,PAYLOAD,2024-04-27 03:00:44,15.08836711,0.0001072,53.2173,28.7802,131.0193,229.0892,2.2317e-05,6.7e-07,0.0,0 STARLINK-3128,1 49441U 21104AK  24118.12551401  .00000067  00000-0  22317-4 0  9997,2 49441  53.2173  28.7802 0001072 131.0193 229.0892 15.08836711137104,6917.89,95.438,540.497,539.014,0.0
